[{"OBJECT_NAME":"QIANFAN-69","OBJECT_ID":"2025-016Q","EPOCH":"2026-03-05T03:08:20.979168","MEAN_MOTION":13.51005421,"ECCENTRICITY":0.0017951,"INCLINATION":88.9667,"RA_OF_ASC_NODE":94.4241,"ARG_OF_PERICENTER":105.8841,"MEAN_ANOMALY":254.429,"EPHEMERIS_TYPE":0,"CLASSIFICATION_TYPE":"U","NORAD_CAT_ID":62799,"ELEMENT_SET_NO":999,"REV_AT_EPOCH":5840,"BSTAR":0.00013993,"MEAN_MOTION_DOT":1.03e-6,"MEAN_MOTION_DDOT":0},{"OBJECT_NAME":"QIANFAN-70","OBJECT_ID":"2025-016R","EPOCH":"2026-03-05T03:31:59.229120","MEAN_MOTION":13.50997076,"ECCENTRICITY":0.0017573,"INCLINATION":88.9688,"RA_OF_ASC_NODE":94.5784,"ARG_OF_PERICENTER":97.4014,"MEAN_ANOMALY":262.9134,"EPHEMERIS_TYPE":0,"CLASSIFICATION_TYPE":"U","NORAD_CAT_ID":62800,"ELEMENT_SET_NO":999,"REV_AT_EPOCH":5836,"BSTAR":6.3184e-5,"MEAN_MOTION_DOT":5.3e-7,"MEAN_MOTION_DDOT":0},{"OBJECT_NAME":"QIANFAN-71","OBJECT_ID":"2025-016S","EPOCH":"2026-03-05T03:25:58.870272","MEAN_MOTION":13.50996595,"ECCENTRICITY":0.0017838,"INCLINATION":88.9681,"RA_OF_ASC_NODE":94.5532,"ARG_OF_PERICENTER":109.0008,"MEAN_ANOMALY":251.3077,"EPHEMERIS_TYPE":0,"CLASSIFICATION_TYPE":"U","NORAD_CAT_ID":62801,"ELEMENT_SET_NO":999,"REV_AT_EPOCH":5836,"BSTAR":6.9866e-5,"MEAN_MOTION_DOT":5.7e-7,"MEAN_MOTION_DDOT":0},{"OBJECT_NAME":"QIANFAN-72","OBJECT_ID":"2025-016T","EPOCH":"2026-03-05T03:49:41.702016","MEAN_MOTION":13.50996269,"ECCENTRICITY":0.0021038,"INCLINATION":88.9672,"RA_OF_ASC_NODE":94.5569,"ARG_OF_PERICENTER":115.6995,"MEAN_ANOMALY":244.6331,"EPHEMERIS_TYPE":0,"CLASSIFICATION_TYPE":"U","NORAD_CAT_ID":62802,"ELEMENT_SET_NO":999,"REV_AT_EPOCH":5835,"BSTAR":5.1745e-5,"MEAN_MOTION_DOT":4.6e-7,"MEAN_MOTION_DDOT":0},{"OBJECT_NAME":"QIANFAN-73","OBJECT_ID":"2025-046A","EPOCH":"2026-03-05T02:41:43.005120","MEAN_MOTION":13.50998206,"ECCENTRICITY":0.0013154,"INCLINATION":88.9761,"RA_OF_ASC_NODE":311.516,"ARG_OF_PERICENTER":244.6354,"MEAN_ANOMALY":115.3436,"EPHEMERIS_TYPE":0,"CLASSIFICATION_TYPE":"U","NORAD_CAT_ID":63159,"ELEMENT_SET_NO":999,"REV_AT_EPOCH":5853,"BSTAR":0.00026912,"MEAN_MOTION_DOT":1.86e-6,"MEAN_MOTION_DDOT":0},{"OBJECT_NAME":"QIANFAN-74","OBJECT_ID":"2025-046B","EPOCH":"2026-03-05T04:04:45.157440","MEAN_MOTION":13.50998127,"ECCENTRICITY":0.0001892,"INCLINATION":88.976,"RA_OF_ASC_NODE":311.3989,"ARG_OF_PERICENTER":78.3692,"MEAN_ANOMALY":281.7671,"EPHEMERIS_TYPE":0,"CLASSIFICATION_TYPE":"U","NORAD_CAT_ID":63160,"ELEMENT_SET_NO":999,"REV_AT_EPOCH":5860,"BSTAR":0.00031152,"MEAN_MOTION_DOT":2.13e-6,"MEAN_MOTION_DDOT":0},{"OBJECT_NAME":"QIANFAN-75","OBJECT_ID":"2025-046C","EPOCH":"2026-03-05T03:46:13.751904","MEAN_MOTION":13.51001474,"ECCENTRICITY":0.0014311,"INCLINATION":88.9763,"RA_OF_ASC_NODE":311.6349,"ARG_OF_PERICENTER":248.3496,"MEAN_ANOMALY":111.6131,"EPHEMERIS_TYPE":0,"CLASSIFICATION_TYPE":"U","NORAD_CAT_ID":63161,"ELEMENT_SET_NO":999,"REV_AT_EPOCH":5847,"BSTAR":0.00018887,"MEAN_MOTION_DOT":1.34e-6,"MEAN_MOTION_DDOT":0},{"OBJECT_NAME":"QIANFAN-76","OBJECT_ID":"2025-046D","EPOCH":"2026-03-05T03:40:56.784864","MEAN_MOTION":13.51014391,"ECCENTRICITY":0.0011878,"INCLINATION":88.9762,"RA_OF_ASC_NODE":311.6153,"ARG_OF_PERICENTER":248.8752,"MEAN_ANOMALY":111.1129,"EPHEMERIS_TYPE":0,"CLASSIFICATION_TYPE":"U","NORAD_CAT_ID":63162,"ELEMENT_SET_NO":999,"REV_AT_EPOCH":5848,"BSTAR":0.00032971,"MEAN_MOTION_DOT":2.25e-6,"MEAN_MOTION_DDOT":0},{"OBJECT_NAME":"QIANFAN-77","OBJECT_ID":"2025-046E","EPOCH":"2026-03-05T02:34:28.992000","MEAN_MOTION":13.96174185,"ECCENTRICITY":0.0014427,"INCLINATION":88.9758,"RA_OF_ASC_NODE":308.9504,"ARG_OF_PERICENTER":176.0488,"MEAN_ANOMALY":184.0805,"EPHEMERIS_TYPE":0,"CLASSIFICATION_TYPE":"U","NORAD_CAT_ID":63163,"ELEMENT_SET_NO":999,"REV_AT_EPOCH":5994,"BSTAR":0.00031065,"MEAN_MOTION_DOT":4.4e-6,"MEAN_MOTION_DDOT":0},{"OBJECT_NAME":"QIANFAN-78","OBJECT_ID":"2025-046F","EPOCH":"2026-03-05T02:53:34.384704","MEAN_MOTION":13.50998433,"ECCENTRICITY":0.00132,"INCLINATION":88.9761,"RA_OF_ASC_NODE":311.482,"ARG_OF_PERICENTER":251.7641,"MEAN_ANOMALY":108.2074,"EPHEMERIS_TYPE":0,"CLASSIFICATION_TYPE":"U","NORAD_CAT_ID":63164,"ELEMENT_SET_NO":999,"REV_AT_EPOCH":5855,"BSTAR":0.0003243,"MEAN_MOTION_DOT":2.21e-6,"MEAN_MOTION_DDOT":0},{"OBJECT_NAME":"QIANFAN-79","OBJECT_ID":"2025-046G","EPOCH":"2026-03-05T03:35:15.329472","MEAN_MOTION":13.51008536,"ECCENTRICITY":0.0013056,"INCLINATION":88.9765,"RA_OF_ASC_NODE":311.5898,"ARG_OF_PERICENTER":249.8609,"MEAN_ANOMALY":110.1138,"EPHEMERIS_TYPE":0,"CLASSIFICATION_TYPE":"U","NORAD_CAT_ID":63165,"ELEMENT_SET_NO":999,"REV_AT_EPOCH":5850,"BSTAR":0.00029624,"MEAN_MOTION_DOT":2.03e-6,"MEAN_MOTION_DDOT":0},{"OBJECT_NAME":"QIANFAN-80","OBJECT_ID":"2025-046H","EPOCH":"2026-03-05T03:58:43.126752","MEAN_MOTION":13.50998101,"ECCENTRICITY":0.0011886,"INCLINATION":88.9761,"RA_OF_ASC_NODE":311.2927,"ARG_OF_PERICENTER":254.5415,"MEAN_ANOMALY":105.4423,"EPHEMERIS_TYPE":0,"CLASSIFICATION_TYPE":"U","NORAD_CAT_ID":63166,"ELEMENT_SET_NO":999,"REV_AT_EPOCH":5866,"BSTAR":0.00027851,"MEAN_MOTION_DOT":1.92e-6,"MEAN_MOTION_DDOT":0},{"OBJECT_NAME":"QIANFAN-81","OBJECT_ID":"2025-046J","EPOCH":"2026-03-05T01:40:35.981760","MEAN_MOTION":13.50984049,"ECCENTRICITY":0.0012972,"INCLINATION":88.9761,"RA_OF_ASC_NODE":311.3705,"ARG_OF_PERICENTER":242.4491,"MEAN_ANOMALY":117.5343,"EPHEMERIS_TYPE":0,"CLASSIFICATION_TYPE":"U","NORAD_CAT_ID":63167,"ELEMENT_SET_NO":999,"REV_AT_EPOCH":5860,"BSTAR":0.00029385,"MEAN_MOTION_DOT":2.02e-6,"MEAN_MOTION_DDOT":0},{"OBJECT_NAME":"QIANFAN-82","OBJECT_ID":"2025-046K","EPOCH":"2026-03-05T02:29:54.269376","MEAN_MOTION":13.50999472,"ECCENTRICITY":0.0011019,"INCLINATION":88.9762,"RA_OF_ASC_NODE":311.411,"ARG_OF_PERICENTER":250.3295,"MEAN_ANOMALY":109.6667,"EPHEMERIS_TYPE":0,"CLASSIFICATION_TYPE":"U","NORAD_CAT_ID":63168,"ELEMENT_SET_NO":999,"REV_AT_EPOCH":5859,"BSTAR":0.00028938,"MEAN_MOTION_DOT":1.99e-6,"MEAN_MOTION_DDOT":0},{"OBJECT_NAME":"QIANFAN-83","OBJECT_ID":"2025-046L","EPOCH":"2026-03-05T03:03:27.252864","MEAN_MOTION":13.62020719,"ECCENTRICITY":0.0012457,"INCLINATION":88.9762,"RA_OF_ASC_NODE":311.023,"ARG_OF_PERICENTER":227.9983,"MEAN_ANOMALY":132.0114,"EPHEMERIS_TYPE":0,"CLASSIFICATION_TYPE":"U","NORAD_CAT_ID":63169,"ELEMENT_SET_NO":999,"REV_AT_EPOCH":5881,"BSTAR":0.00032229,"MEAN_MOTION_DOT":2.61e-6,"MEAN_MOTION_DDOT":0},{"OBJECT_NAME":"QIANFAN-84","OBJECT_ID":"2025-046M","EPOCH":"2026-03-05T03:09:57.345408","MEAN_MOTION":13.50961223,"ECCENTRICITY":0.0014041,"INCLINATION":88.9759,"RA_OF_ASC_NODE":311.5402,"ARG_OF_PERICENTER":246.5333,"MEAN_ANOMALY":113.4343,"EPHEMERIS_TYPE":0,"CLASSIFICATION_TYPE":"U","NORAD_CAT_ID":63170,"ELEMENT_SET_NO":999,"REV_AT_EPOCH":5852,"BSTAR":-0.0001494,"MEAN_MOTION_DOT":-8.5e-7,"MEAN_MOTION_DDOT":0},{"OBJECT_NAME":"QIANFAN-85","OBJECT_ID":"2025-046N","EPOCH":"2026-03-05T03:05:25.674432","MEAN_MOTION":13.51002202,"ECCENTRICITY":0.0011437,"INCLINATION":88.9761,"RA_OF_ASC_NODE":311.4122,"ARG_OF_PERICENTER":248.9388,"MEAN_ANOMALY":111.054,"EPHEMERIS_TYPE":0,"CLASSIFICATION_TYPE":"U","NORAD_CAT_ID":63171,"ELEMENT_SET_NO":999,"REV_AT_EPOCH":5859,"BSTAR":0.00028016,"MEAN_MOTION_DOT":1.93e-6,"MEAN_MOTION_DDOT":0}]
