QIANFAN-69              
1 62799U 25016Q   26064.13079837  .00000103  00000+0  13993-3 0  9994
2 62799  88.9667  94.4241 0017951 105.8841 254.4290 13.51005421 58408
QIANFAN-70              
1 62800U 25016R   26064.14721330  .00000053  00000+0  63184-4 0  9992
2 62800  88.9688  94.5784 0017573  97.4014 262.9134 13.50997076 58366
QIANFAN-71              
1 62801U 25016S   26064.14304248  .00000057  00000+0  69866-4 0  9995
2 62801  88.9681  94.5532 0017838 109.0008 251.3077 13.50996595 58361
QIANFAN-72              
1 62802U 25016T   26064.15951044  .00000046  00000+0  51745-4 0  9994
2 62802  88.9672  94.5569 0021038 115.6995 244.6331 13.50996269 58352
QIANFAN-73              
1 63159U 25046A   26064.11230330  .00000186  00000+0  26912-3 0  9999
2 63159  88.9761 311.5160 0013154 244.6354 115.3436 13.50998206 58531
QIANFAN-74              
1 63160U 25046B   26064.16996710  .00000213  00000+0  31152-3 0  9990
2 63160  88.9760 311.3989 0001892  78.3692 281.7671 13.50998127 58601
QIANFAN-75              
1 63161U 25046C   26064.15710361  .00000134  00000+0  18887-3 0  9998
2 63161  88.9763 311.6349 0014311 248.3496 111.6131 13.51001474 58477
QIANFAN-76              
1 63162U 25046D   26064.15343501  .00000225  00000+0  32971-3 0  9998
2 63162  88.9762 311.6153 0011878 248.8752 111.1129 13.51014391 58480
QIANFAN-77              
1 63163U 25046E   26064.10728000  .00000440  00000+0  31065-3 0  9997
2 63163  88.9758 308.9504 0014427 176.0488 184.0805 13.96174185 59945
QIANFAN-78              
1 63164U 25046F   26064.12053686  .00000221  00000+0  32430-3 0  9995
2 63164  88.9761 311.4820 0013200 251.7641 108.2074 13.50998433 58552
QIANFAN-79              
1 63165U 25046G   26064.14948298  .00000203  00000+0  29624-3 0  9991
2 63165  88.9765 311.5898 0013056 249.8609 110.1138 13.51008536 58509
QIANFAN-80              
1 63166U 25046H   26064.16577693  .00000192  00000+0  27851-3 0  9998
2 63166  88.9761 311.2927 0011886 254.5415 105.4423 13.50998101 58669
QIANFAN-81              
1 63167U 25046J   26064.06986090  .00000202  00000+0  29385-3 0  9999
2 63167  88.9761 311.3705 0012972 242.4491 117.5343 13.50984049 58607
QIANFAN-82              
1 63168U 25046K   26064.10410034  .00000199  00000+0  28938-3 0  9993
2 63168  88.9762 311.4110 0011019 250.3295 109.6667 13.50999472 58596
QIANFAN-83              
1 63169U 25046L   26064.12739876  .00000261  00000+0  32229-3 0  9992
2 63169  88.9762 311.0230 0012457 227.9983 132.0114 13.62020719 58811
QIANFAN-84              
1 63170U 25046M   26064.13191372 -.00000085  00000+0 -14940-3 0  9994
2 63170  88.9759 311.5402 0014041 246.5333 113.4343 13.50961223 58528
QIANFAN-85              
1 63171U 25046N   26064.12876938  .00000193  00000+0  28016-3 0  9999
2 63171  88.9761 311.4122 0011437 248.9388 111.0540 13.51002202 58596
